OBJECT_NAME,OBJECT_ID,EPOCH,MEAN_MOTION,ECCENTRICITY,INCLINATION,RA_OF_ASC_NODE,ARG_OF_PERICENTER,MEAN_ANOMALY,EPHEMERIS_TYPE,CLASSIFICATION_TYPE,NORAD_CAT_ID,ELEMENT_SET_NO,REV_AT_EPOCH,BSTAR,MEAN_MOTION_DOT,MEAN_MOTION_DDOT
ONEWEB-0473,2022-012AH,2026-06-19T02:04:31.235232,13.10266983,.0001772,87.8824,35.8980,78.8566,281.2760,0,U,51653,999,20955,-.84690076E-3,-.283E-5,0
ONEWEB-0474,2022-012AJ,2026-06-19T01:52:29.329536,13.10298154,.00015688,87.8840,35.8843,75.0455,285.0846,0,U,51654,999,20954,.16340681E-2,.582E-5,0
ONEWEB-0475,2022-012AK,2026-06-19T06:32:34.718784,13.17648740,.00014302,87.9132,5.4577,70.8162,289.3124,0,U,51655,999,21396,.51199609E-4,.33E-6,0
ONEWEB-0490,2022-138A,2026-06-19T02:32:23.119296,13.19724876,.00017311,87.9178,304.5846,102.8728,257.2598,0,U,54113,999,17708,.21358909E-3,.98E-6,0
ONEWEB-0492,2022-138B,2026-06-18T21:41:15.169056,13.19726133,.0001851,87.9172,304.6262,107.2120,252.9216,0,U,54114,999,17706,-.10493E-3,-.29E-6,0
ONEWEB-0495,2022-138C,2026-06-18T21:09:24.338016,13.19724455,.0001316,87.9171,304.6328,111.8838,248.2435,0,U,54115,999,17704,-.21698E-5,.12E-6,0
ONEWEB-0497,2022-138D,2026-06-19T02:55:07.832352,13.19724731,.0001814,87.9179,304.5773,101.0572,259.0765,0,U,54116,999,17706,.91010246E-4,.49E-6,0
ONEWEB-0499,2022-138E,2026-06-19T02:31:14.540160,13.19726780,.00016176,87.9172,304.5896,99.2468,260.8848,0,U,54117,999,17707,.35316317E-4,.27E-6,0
ONEWEB-0500,2022-138F,2026-06-18T21:07:07.701600,13.19724246,.0001968,87.9178,304.6289,100.8926,259.2429,0,U,54118,999,17705,-.51017E-4,-.7E-7,0
ONEWEB-0501,2022-138G,2026-06-19T03:17:52.335456,13.19723609,.0001467,87.9180,304.5772,106.5962,253.5332,0,U,54119,999,17706,.14741862E-3,.72E-6,0
ONEWEB-0502,2022-138H,2026-06-19T02:57:23.762880,13.19723262,.00016182,87.9180,304.5689,96.7972,263.3345,0,U,54120,999,17708,-.26794414E-3,-.94E-6,0
ONEWEB-0503,2022-138J,2026-06-19T02:41:28.986720,13.19724460,.00019058,87.9182,304.5771,91.1870,268.9481,0,U,54121,999,17707,.57967596E-4,.36E-6,0
ONEWEB-0504,2022-138K,2026-06-19T02:23:17.529216,13.19724898,.00016283,87.9180,304.5846,96.5675,263.5643,0,U,54122,999,17708,.24141115E-3,.11E-5,0
ONEWEB-0505,2022-138L,2026-06-19T02:18:44.510400,13.19726218,.00013852,87.9180,304.5862,101.9266,258.2023,0,U,54123,999,17706,.63602022E-4,.38E-6,0
ONEWEB-0506,2022-138M,2026-06-19T01:42:20.189664,13.19724074,.00015443,87.9181,304.5882,102.3382,257.7924,0,U,54124,999,17705,-.19046758E-3,-.63E-6,0
ONEWEB-0507,2022-138N,2026-06-19T02:11:55.167936,13.19724916,.00016969,87.9170,304.5962,102.7223,257.4099,0,U,54125,999,17710,.10898979E-3,.57E-6,0
ONEWEB-0508,2022-138P,2026-06-18T22:29:00.428928,13.19724131,.0001574,87.9170,304.6265,110.2179,249.9123,0,U,54126,999,17706,.17919E-4,.2E-6,0
ONEWEB-0509,2022-138Q,2026-06-19T01:30:57.821472,13.19724752,.00017203,87.9182,304.5910,100.7562,259.3764,0,U,54127,999,17705,-.12527851E-3,-.37E-6,0
ONEWEB-0510,2022-138R,2026-06-19T06:04:37.236864,13.20772234,.00023921,87.9198,274.0243,93.9120,266.2287,0,U,54128,999,17955,.18337594E-3,.88E-6,0
ONEWEB-0511,2022-138S,2026-06-19T03:15:35.946144,13.19726057,.0001716,87.9177,304.5790,91.8682,268.2647,0,U,54129,999,17709,.47279175E-4,.32E-6,0
ONEWEB-0512,2022-138T,2026-06-19T03:04:13.128672,13.19725979,.00015297,87.9169,304.5857,97.4726,262.6581,0,U,54130,999,17706,.25072264E-3,.113E-5,0
ONEWEB-0513,2022-138U,2026-06-19T03:11:09.484224,13.20268310,.00010388,87.9180,304.5285,78.3481,281.7769,0,U,54131,999,17697,-.71460709E-4,-.16E-6,0
ONEWEB-0514,2022-138V,2026-06-19T01:37:47.493984,13.19725182,.00020023,87.9182,304.5915,96.4754,263.6606,0,U,54132,999,17707,.7000658E-5,.16E-6,0
ONEWEB-0515,2022-138W,2026-06-19T05:45:13.557600,13.20770810,.00027793,87.9204,274.0214,108.6762,251.4673,0,U,54133,999,17957,.3964433E-3,.174E-5,0
ONEWEB-0516,2022-138X,2026-06-19T02:50:33.895968,13.19725893,.0001865,87.9168,304.5878,105.1729,254.9610,0,U,54134,999,17708,.38001114E-3,.165E-5,0
ONEWEB-0517,2022-138Y,2026-06-19T02:21:00.480672,13.19724590,.00019302,87.9179,304.5842,89.9109,270.2245,0,U,54135,999,17708,.10192006E-3,.54E-6,0
ONEWEB-0518,2022-138Z,2026-06-19T02:48:18.890784,13.19727152,.00018853,87.9170,304.5899,105.4270,254.7071,0,U,54136,999,17708,-.15685605E-4,.7E-7,0
ONEWEB-0519,2022-138AA,2026-06-19T01:35:31.401024,13.19726391,.00018974,87.9184,304.5915,92.2570,267.8780,0,U,54137,999,17708,-.21264904E-3,-.72E-6,0
ONEWEB-0520,2022-138AB,2026-06-19T02:25:33.974688,13.19724480,.00016346,87.9180,304.5846,103.1702,256.9613,0,U,54138,999,17707,-.58447323E-4,-.1E-6,0
ONEWEB-0521,2022-138AC,2026-06-19T03:13:19.172352,13.19724989,.0001922,87.9182,304.5666,91.9568,268.1785,0,U,54139,999,17702,.77329819E-4,.44E-6,0
